OBJECT_NAME,OBJECT_ID,EPOCH,MEAN_MOTION,ECCENTRICITY,INCLINATION,RA_OF_ASC_NODE,ARG_OF_PERICENTER,MEAN_ANOMALY,EPHEMERIS_TYPE,CLASSIFICATION_TYPE,NORAD_CAT_ID,ELEMENT_SET_NO,REV_AT_EPOCH,BSTAR,MEAN_MOTION_DOT,MEAN_MOTION_DDOT
STARLINK-32397,2024-187V,2026-06-05T21:33:56.363328,15.34393609,.00011027,53.1611,12.1281,78.0041,282.1085,0,U,61593,999,9263,.30622775E-4,.658E-5,0
ONEWEB-0015,2024-188A,2026-06-05T07:56:27.070368,13.11415493,.00023192,87.8896,23.4527,78.6828,281.4560,0,U,61594,999,8290,.20381385E-3,.85E-6,0
ONEWEB-0687,2024-188B,2026-06-05T07:24:39.966624,13.17650313,.00023058,87.9135,8.2402,91.8109,268.3287,0,U,61595,999,8433,-.32736561E-3,-.114E-5,0
ONEWEB-0688,2024-188C,2026-06-05T11:44:40.401600,13.17647388,.00029645,87.9136,8.2041,75.7741,284.3720,0,U,61596,999,8435,.12322784E-3,.61E-6,0
ONEWEB-0689,2024-188D,2026-06-05T08:45:16.740576,13.11419802,.0001912,87.8914,23.4029,94.3577,265.7770,0,U,61597,999,8290,-.44569779E-3,-.145E-5,0
ONEWEB-0690,2024-188E,2026-06-05T08:59:56.285664,13.11420332,.00015311,87.8910,23.4132,62.9701,297.1583,0,U,61598,999,8308,.60845373E-3,.228E-5,0
ONEWEB-0691,2024-188F,2026-06-05T08:52:36.941664,13.11417796,.00021769,87.8919,23.3215,83.4943,276.6433,0,U,61599,999,8293,.10820002E-3,.51E-6,0
ONEWEB-0692,2024-188G,2026-06-05T09:21:55.036512,13.11418003,.00019572,87.8897,23.4327,101.4362,258.6986,0,U,61600,999,8292,.2084881E-2,.752E-5,0
ONEWEB-0693,2024-188H,2026-06-05T12:01:40.240416,13.17651275,.00017034,87.9136,8.2212,62.3383,297.7921,0,U,61601,999,8434,.71941939E-4,.41E-6,0
ONEWEB-0695,2024-188J,2026-06-05T08:47:43.021824,13.11418834,.00017616,87.8900,23.4299,102.0531,258.0795,0,U,61602,999,8291,-.33377057E-3,-.106E-5,0
ONEWEB-0697,2024-188K,2026-06-05T07:44:15.161280,13.11415865,.00013516,87.8894,23.4290,109.1849,250.9425,0,U,61603,999,8289,.96902004E-3,.356E-5,0
ONEWEB-0698,2024-188L,2026-06-05T09:02:22.204032,13.11419857,.00006348,87.8892,23.4326,70.0414,290.0782,0,U,61604,999,8292,.11162451E-2,.408E-5,0
ONEWEB-0699,2024-188M,2026-06-05T09:07:19.944480,13.10370210,.00012629,87.8838,38.6171,97.1329,262.9942,0,U,61605,999,8176,-.81485294E-3,-.272E-5,0
ONEWEB-0700,2024-188N,2026-06-05T09:09:43.202592,13.10370287,.00016007,87.8859,38.5240,104.4540,255.6765,0,U,61606,999,8175,-.1102757E-2,-.372E-5,0
ONEWEB-0701,2024-188P,2026-06-05T09:33:36.984672,13.10374079,.00011646,87.8847,38.6135,104.3716,255.7541,0,U,61607,999,8176,-.21072536E-2,-.723E-5,0
ONEWEB-0702,2024-188Q,2026-06-05T00:58:57.437184,13.11417983,.00013321,87.8913,23.4017,110.4521,249.6750,0,U,61608,999,8289,-.13135538E-2,-.453E-5,0
ONEWEB-0704,2024-188R,2026-06-05T09:16:53.411520,13.10371818,.00016889,87.8855,38.6031,117.5910,242.5389,0,U,61609,999,8174,-.15319601E-2,-.522E-5,0
ONEWEB-0705,2024-188S,2026-06-05T09:24:03.470976,13.10365865,.00024378,87.8851,38.6082,106.1272,254.0124,0,U,61610,999,7391,-.40949106E-2,-.1416E-4,0
ONEWEB-0706,2024-188T,2026-06-05T09:02:33.423072,13.10369460,.00017525,87.8842,38.6171,101.5636,258.5688,0,U,61611,999,8183,-.33434442E-3,-.104E-5,0
ONEWEB-0707,2024-188U,2026-06-05T09:12:06.560928,13.10369825,.00017212,87.8846,38.6105,104.8677,255.2641,0,U,61612,999,8177,-.13884039E-2,-.472E-5,0
ONEWEB-0708,2024-188V,2026-06-05T09:38:24.033120,13.10375608,.00023054,87.8854,38.6243,88.6742,271.4650,0,U,61613,999,8175,-.18819865E-2,-.644E-5,0
TIANPING 3A-01,2024-189A,2026-06-05T21:55:50.186784,15.01101756,.0002701,97.5205,177.5001,60.1312,300.0180,0,U,61614,999,8879,.31699E-3,.4E-4,0
TIANPING 3B-01,2024-189B,2026-06-05T21:54:52.028352,15.01088056,.0003573,97.5189,177.4074,54.3594,305.7963,0,U,61615,999,8875,.22739E-3,.2852E-4,0
TIANPING 3B-02,2024-189C,2026-06-05T21:55:20.382240,15.01095182,.0002648,97.5206,177.5157,67.4029,292.7475,0,U,61616,999,8875,.23648078E-3,.2969E-4,0
YAOGAN-43 03A,2024-190A,2026-06-05T18:34:58.904832,15.22959076,.00054187,34.9911,269.5096,233.8463,126.1751,0,U,61617,999,9012,.32412974E-3,.7773E-4,0
YAOGAN-43 03B,2024-190B,2026-06-03T19:24:16.928064,15.23184016,.00063048,34.9895,281.7639,240.5600,119.4485,0,U,61618,999,8982,.40918061E-3,.9893E-4,0
YAOGAN-43 03C,2024-190C,2026-06-05T18:44:37.169664,15.22948932,.00064088,34.9964,269.8175,246.4654,113.5388,0,U,61619,999,9008,.1303464E-3,.3101E-4,0
STARLINK-32302,2024-191A,2026-06-05T23:44:05.771616,15.27581932,.00009798,43.0050,15.5758,258.0426,102.0316,0,U,61621,999,9179,.45532019E-4,.991E-5,0
STARLINK-32364,2024-191B,2026-06-05T08:17:19.652640,15.27580061,.00020218,43.0058,19.3474,261.2209,98.8414,0,U,61622,999,9094,.22231252E-4,.349E-5,0
STARLINK-32331,2024-191C,2026-06-05T08:35:08.983104,15.27572806,.00015047,43.0061,22.9092,268.0169,92.0510,0,U,61623,999,9090,-.16014851E-4,-.703E-5,0
