STARLINK-32397          
1 61593U 24187V   26156.89856902  .00000658  00000+0  30623-4 0  9999
2 61593  53.1611  12.1281 0001102  78.0041 282.1085 15.34393609 92631
ONEWEB-0015             
1 61594U 24188A   26156.33086887  .00000085  00000+0  20381-3 0  9990
2 61594  87.8896  23.4527 0002319  78.6828 281.4560 13.11415493 82907
ONEWEB-0687             
1 61595U 24188B   26156.30879591 -.00000114  00000+0 -32737-3 0  9993
2 61595  87.9135   8.2402 0002305  91.8109 268.3287 13.17650313 84339
ONEWEB-0688             
1 61596U 24188C   26156.48935650  .00000061  00000+0  12323-3 0  9990
2 61596  87.9136   8.2041 0002964  75.7741 284.3720 13.17647388 84354
ONEWEB-0689             
1 61597U 24188D   26156.36477709 -.00000145  00000+0 -44570-3 0  9998
2 61597  87.8914  23.4029 0001912  94.3577 265.7770 13.11419802 82908
ONEWEB-0690             
1 61598U 24188E   26156.37495701  .00000228  00000+0  60845-3 0  9995
2 61598  87.8910  23.4132 0001531  62.9701 297.1583 13.11420332 83088
ONEWEB-0691             
1 61599U 24188F   26156.36987201  .00000051  00000+0  10820-3 0  9998
2 61599  87.8919  23.3215 0002176  83.4943 276.6433 13.11417796 82930
ONEWEB-0692             
1 61600U 24188G   26156.39022033  .00000752  00000+0  20849-2 0  9996
2 61600  87.8897  23.4327 0001957 101.4362 258.6986 13.11418003 82929
ONEWEB-0693             
1 61601U 24188H   26156.50116019  .00000041  00000+0  71942-4 0  9991
2 61601  87.9136   8.2212 0001703  62.3383 297.7921 13.17651275 84345
ONEWEB-0695             
1 61602U 24188J   26156.36647016 -.00000106  00000+0 -33377-3 0  9995
2 61602  87.8900  23.4299 0001761 102.0531 258.0795 13.11418834 82915
ONEWEB-0697             
1 61603U 24188K   26156.32239770  .00000356  00000+0  96902-3 0  9994
2 61603  87.8894  23.4290 0001351 109.1849 250.9425 13.11415865 82893
ONEWEB-0698             
1 61604U 24188L   26156.37664588  .00000408  00000+0  11162-2 0  9991
2 61604  87.8892  23.4326 0000634  70.0414 290.0782 13.11419857 82929
ONEWEB-0699             
1 61605U 24188M   26156.38009195 -.00000272  00000+0 -81485-3 0  9997
2 61605  87.8838  38.6171 0001262  97.1329 262.9942 13.10370210 81764
ONEWEB-0700             
1 61606U 24188N   26156.38175003 -.00000372  00000+0 -11028-2 0  9996
2 61606  87.8859  38.5240 0001600 104.4540 255.6765 13.10370287 81752
ONEWEB-0701             
1 61607U 24188P   26156.39834473 -.00000723  00000+0 -21073-2 0  9992
2 61607  87.8847  38.6135 0001164 104.3716 255.7541 13.10374079 81760
ONEWEB-0702             
1 61608U 24188Q   26156.04094256 -.00000453  00000+0 -13136-2 0  9993
2 61608  87.8913  23.4017 0001332 110.4521 249.6750 13.11417983 82897
ONEWEB-0704             
1 61609U 24188R   26156.38672930 -.00000522  00000+0 -15320-2 0  9996
2 61609  87.8855  38.6031 0001688 117.5910 242.5389 13.10371818 81749
ONEWEB-0705             
1 61610U 24188S   26156.39170684 -.00001416  00000+0 -40949-2 0  9996
2 61610  87.8851  38.6082 0002437 106.1272 254.0124 13.10365865 73911
ONEWEB-0706             
1 61611U 24188T   26156.37677573 -.00000104  00000+0 -33434-3 0  9999
2 61611  87.8842  38.6171 0001752 101.5636 258.5688 13.10369460 81832
ONEWEB-0707             
1 61612U 24188U   26156.38340927 -.00000472  00000+0 -13884-2 0  9995
2 61612  87.8846  38.6105 0001721 104.8677 255.2641 13.10369825 81772
ONEWEB-0708             
1 61613U 24188V   26156.40166705 -.00000644  00000+0 -18820-2 0  9995
2 61613  87.8854  38.6243 0002305  88.6742 271.4650 13.10375608 81750
TIANPING 3A-01          
1 61614U 24189A   26156.91377531  .00004000  00000+0  31699-3 0  9992
2 61614  97.5205 177.5001 0002701  60.1312 300.0180 15.01101756 88793
TIANPING 3B-01          
1 61615U 24189B   26156.91310218  .00002852  00000+0  22739-3 0  9990
2 61615  97.5189 177.4074 0003573  54.3594 305.7963 15.01088056 88753
TIANPING 3B-02          
1 61616U 24189C   26156.91343035  .00002969  00000+0  23648-3 0  9993
2 61616  97.5206 177.5157 0002648  67.4029 292.7475 15.01095182 88758
YAOGAN-43 03A           
1 61617U 24190A   26156.77429288  .00007773  00000+0  32413-3 0  9993
2 61617  34.9911 269.5096 0005418 233.8463 126.1751 15.22959076 90125
YAOGAN-43 03B           
1 61618U 24190B   26154.80852926  .00009893  00000+0  40918-3 0  9999
2 61618  34.9895 281.7639 0006304 240.5600 119.4485 15.23184016 89828
YAOGAN-43 03C           
1 61619U 24190C   26156.78098576  .00003101  00000+0  13035-3 0  9998
2 61619  34.9964 269.8175 0006408 246.4654 113.5388 15.22948932 90088
STARLINK-32302          
1 61621U 24191A   26156.98895569  .00000991  00000+0  45532-4 0  9993
2 61621  43.0050  15.5758 0000979 258.0426 102.0316 15.27581932 91795
STARLINK-32364          
1 61622U 24191B   26156.34536635  .00000349  00000+0  22231-4 0  9998
2 61622  43.0058  19.3474 0002021 261.2209  98.8414 15.27580061 90945
STARLINK-32331          
1 61623U 24191C   26156.35774286 -.00000703  00000+0 -16015-4 0  9995
2 61623  43.0061  22.9092 0001504 268.0169  92.0510 15.27572806 90908
